NORAD_CAT_ID,OBJECT_NAME,OBJECT_TYPE,EPOCH,MEAN_MOTION,ECCENTRICITY,INCLINATION,RA_OF_ASC_NODE,ARG_OF_PERICENTER,MEAN_ANOMALY,BSTAR,MEAN_MOTION_DOT,MEAN_MOTION_DDOT,TLE_LINE0,TLE_LINE1,TLE_LINE2,SEMIMAJOR_AXIS,PERIOD,APOGEE,PERIGEE,DECAYED
55639.0,STARLINK-5508,PAYLOAD,2024-03-24 16:52:29,14.98348572,0.0002341,70.0027,187.1812,246.8922,113.1991,0.00014976,1.695e-05,0.0,0 STARLINK-5508,1 55639U 23021M   24084.70311554  .00001695  00000-0  14976-3 0  9991,2 55639  70.0027 187.1812 0002341 246.8922 113.1991 14.98348572 61392,6950.135,96.106,573.627,570.373,0.0
55639.0,STARLINK-5508,PAYLOAD,2024-03-25 13:42:15,14.98322151,0.000326,70.0,184.9929,263.9873,96.0915,-2.7715e-05,-4.24e-06,0.0,0 STARLINK-5508,1 55639U 23021M   24085.57101805 -.00000424  00000-0 -27715-4 0  9990,2 55639  70.0000 184.9929 0003260 263.9873  96.0915 14.98322151 61528,6950.217,96.108,574.348,569.816,0.0
55639.0,STARLINK-5508,PAYLOAD,2024-03-25 16:54:31,14.98326036,0.0003014,70.0006,184.6553,263.6004,96.4812,1.0743e-05,3.5e-07,0.0,0 STARLINK-5508,1 55639U 23021M   24085.70453505  .00000035  00000-0  10743-4 0  9991,2 55639  70.0006 184.6553 0003014 263.6004  96.4812 14.98326036 61845,6950.205,96.107,574.165,569.975,0.0
55639.0,STARLINK-5508,PAYLOAD,2024-03-26 13:44:18,14.98314717,0.0002387,70.0022,182.4683,255.7571,104.3323,-0.0003001,-3.67e-05,0.0,0 STARLINK-5508,1 55639U 23021M   24086.57243844 -.00003670  00000-0 -30010-3 0  9998,2 55639  70.0022 182.4683 0002387 255.7571 104.3323 14.98314717 61676,6950.24,96.108,573.764,570.446,0.0
55639.0,STARLINK-5508,PAYLOAD,2024-03-26 15:20:26,14.98314363,0.0002388,70.0022,182.3,256.0485,104.0408,-0.00029667,-3.629e-05,0.0,0 STARLINK-5508,1 55639U 23021M   24086.63919922 -.00003629  00000-0 -29667-3 0  9992,2 55639  70.0022 182.3000 0002388 256.0485 104.0408 14.98314363 61989,6950.241,96.108,573.766,570.447,0.0
55639.0,STARLINK-5508,PAYLOAD,2024-03-26 23:21:06,14.98334788,0.0003005,70.0011,181.4552,284.0632,76.0193,-0.00028609,-3.505e-05,0.0,0 STARLINK-5508,1 55639U 23021M   24086.97298696 -.00003505  00000-0 -28609-3 0  9995,2 55639  70.0011 181.4552 0003005 284.0632  76.0193 14.98334788 61736,6950.178,96.107,574.132,569.955,0.0
55639.0,STARLINK-5508,PAYLOAD,2024-03-27 13:46:18,14.98325887,0.0002801,70.0014,179.9427,265.3852,94.6987,0.00019117,2.189e-05,0.0,0 STARLINK-5508,1 55639U 23021M   24087.57382324  .00002189  00000-0  19117-3 0  9993,2 55639  70.0014 179.9427 0002801 265.3852  94.6987 14.98325887 62122,6950.206,96.107,574.017,570.124,0.0
55639.0,STARLINK-5508,PAYLOAD,2024-03-27 15:22:25,14.98332649,0.0002804,70.0019,179.7736,262.5317,97.5524,0.00029187,3.391e-05,0.0,0 STARLINK-5508,1 55639U 23021M   24087.64057611  .00003391  00000-0  29187-3 0  9993,2 55639  70.0019 179.7736 0002804 262.5317  97.5524 14.98332649 61836,6950.185,96.107,573.999,570.101,0.0
55639.0,STARLINK-5508,PAYLOAD,2024-03-28 12:12:10,14.98334647,0.0002591,70.0017,177.5859,262.8988,97.1876,0.00032886,3.834e-05,0.0,0 STARLINK-5508,1 55639U 23021M   24088.50845376  .00003834  00000-0  32886-3 0  9994,2 55639  70.0017 177.5859 0002591 262.8988  97.1876 14.98334647 62260,6950.179,96.107,573.844,570.243,0.0
55639.0,STARLINK-5508,PAYLOAD,2024-03-29 12:14:11,14.98336733,0.0002371,70.0019,175.0606,266.5377,93.5511,0.00019621,2.249e-05,0.0,0 STARLINK-5508,1 55639U 23021M   24089.50985067  .00002249  00000-0  19621-3 0  9998,2 55639  70.0019 175.0606 0002371 266.5377  93.5511 14.98336733 62112,6950.172,96.107,573.685,570.389,0.0
55639.0,STARLINK-5508,PAYLOAD,2024-03-30 04:15:32,14.98332777,0.0002891,70.0007,173.3782,271.9484,88.1344,-8.7528e-05,-1.137e-05,0.0,0 STARLINK-5508,1 55639U 23021M   24090.17745682 -.00001137  00000-0 -87528-4 0  9999,2 55639  70.0007 173.3782 0002891 271.9484  88.1344 14.98332777 62210,6950.184,96.107,574.059,570.04,0.0
55639.0,STARLINK-5508,PAYLOAD,2024-03-30 13:52:20,14.98332888,0.0002809,70.0008,172.3679,270.829,89.2547,-0.00013954,-1.758e-05,0.0,0 STARLINK-5508,1 55639U 23021M   24090.57801721 -.00001758  00000-0 -13954-3 0  9990,2 55639  70.0008 172.3679 0002809 270.8290  89.2547 14.98332888 62576,6950.184,96.107,574.001,570.097,0.0
55639.0,STARLINK-5508,PAYLOAD,2024-03-31 04:17:33,14.98330574,0.0002721,70.0008,170.8531,271.9966,88.0882,-5.0351e-05,-6.94e-06,0.0,0 STARLINK-5508,1 55639U 23021M   24091.17885520 -.00000694  00000-0 -50351-4 0  9997,2 55639  70.0008 170.8531 0002721 271.9966  88.0882 14.98330574 62367,6950.191,96.107,573.947,570.165,0.0
55639.0,STARLINK-5508,PAYLOAD,2024-03-31 13:54:21,14.9833131,0.0002755,70.0007,169.8435,272.761,87.3233,-4.6689e-05,-6.5e-06,0.0,0 STARLINK-5508,1 55639U 23021M   24091.57941441 -.00000650  00000-0 -46689-4 0  9997,2 55639  70.0007 169.8435 0002755 272.7610  87.3233 14.98331310 62720,6950.189,96.107,573.969,570.139,0.0
55639.0,STARLINK-5508,PAYLOAD,2024-03-31 21:55:01,14.98340404,0.0002795,70.0006,169.0019,273.7173,86.3666,-0.00023241,-2.866e-05,0.0,0 STARLINK-5508,1 55639U 23021M   24091.91321234 -.00002866  00000-0 -23241-3 0  9996,2 55639  70.0006 169.0019 0002795 273.7173  86.3666 14.98340404 62776,6950.161,96.106,573.968,570.083,0.0
55639.0,STARLINK-5508,PAYLOAD,2024-04-01 12:20:14,14.98325643,0.0002786,70.0006,167.4873,269.975,90.1089,3.18e-05,2.86e-06,0.0,0 STARLINK-5508,1 55639U 23021M   24092.51405683  .00000286  00000-0  31800-4 0  9997,2 55639  70.0006 167.4873 0002786 269.9750  90.1089 14.98325643 62561,6950.206,96.107,574.008,570.135,0.0
55639.0,STARLINK-5508,PAYLOAD,2024-04-01 13:56:22,14.98326557,0.0002772,70.0006,167.319,269.8724,90.2117,4.1413e-05,4.01e-06,0.0,0 STARLINK-5508,1 55639U 23021M   24092.58081609  .00000401  00000-0  41413-4 0  9992,2 55639  70.0006 167.3190 0002772 269.8724  90.2117 14.98326557 62879,6950.204,96.107,573.995,570.142,0.0
55639.0,STARLINK-5508,PAYLOAD,2024-04-01 21:57:02,14.98338908,0.0002774,70.0006,166.4774,271.4124,88.6717,-9.5627e-05,-1.234e-05,0.0,0 STARLINK-5508,1 55639U 23021M   24092.91461117 -.00001234  00000-0 -95627-4 0  9998,2 55639  70.0006 166.4774 0002774 271.4124  88.6717 14.98338908 62625,6950.165,96.106,573.958,570.102,0.0
55639.0,STARLINK-5508,PAYLOAD,2024-04-02 12:22:14,14.98368963,0.0003043,70.0003,164.9625,267.5021,92.5789,-0.00053669,-6.497e-05,0.0,0 STARLINK-5508,1 55639U 23021M   24093.51544187 -.00006497  00000-0 -53669-3 0  9999,2 55639  70.0003 164.9625 0003043 267.5021  92.5789 14.98368963 63013,6950.072,96.104,574.052,569.822,0.0
55639.0,STARLINK-5508,PAYLOAD,2024-04-02 21:59:02,14.98349635,0.000308,70.0001,163.9511,278.4065,81.6745,-0.00025312,-3.113e-05,0.0,0 STARLINK-5508,1 55639U 23021M   24093.91600513 -.00003113  00000-0 -25312-3 0  9995,2 55639  70.0001 163.9511 0003080 278.4065  81.6745 14.98349635 63076,6950.132,96.106,574.138,569.857,0.0
55639.0,STARLINK-5508,PAYLOAD,2024-04-03 04:23:35,14.98329048,0.0002934,70.0002,163.2777,274.3619,85.7204,-1.4855e-06,-1.11e-06,0.0,0 STARLINK-5508,1 55639U 23021M   24094.18305278 -.00000111  00000-0 -14855-5 0  9992,2 55639  70.0002 163.2777 0002934 274.3619  85.7204 14.98329048 62813,6950.196,96.107,574.1,570.022,0.0
55639.0,STARLINK-5508,PAYLOAD,2024-04-03 14:00:24,14.98325505,0.0002938,70.0001,162.2684,271.4768,88.6054,6.3613e-06,-1.7e-07,0.0,0 STARLINK-5508,1 55639U 23021M   24094.58361512 -.00000017  00000-0  63613-5 0  9999,2 55639  70.0001 162.2684 0002938 271.4768  88.6054 14.98325505 63174,6950.207,96.107,574.114,570.03,0.0
55639.0,STARLINK-5508,PAYLOAD,2024-04-04 04:25:36,14.98337259,0.00029,69.9998,160.7547,274.0972,85.9855,-0.000222,-2.741e-05,0.0,0 STARLINK-5508,1 55639U 23021M   24095.18445432 -.00002741  00000-0 -22200-3 0  9992,2 55639  69.9998 160.7547 0002900 274.0972  85.9855 14.98337259 62966,6950.17,96.107,574.051,570.02,0.0
55639.0,STARLINK-5508,PAYLOAD,2024-04-04 14:02:25,14.98328329,0.0002953,69.9998,159.7437,271.8585,88.2236,-7.8391e-05,-1.028e-05,0.0,0 STARLINK-5508,1 55639U 23021M   24095.58501595 -.00001028  00000-0 -78391-4 0  9999,2 55639  69.9998 159.7437 0002953 271.8585  88.2236 14.98328329 63323,6950.198,96.107,574.115,570.011,0.0
55639.0,STARLINK-5508,PAYLOAD,2024-04-04 22:03:05,14.98331492,0.0002975,69.9998,158.9019,271.9502,88.1316,-8.5806e-06,-1.95e-06,0.0,0 STARLINK-5508,1 55639U 23021M   24095.91881202 -.00000195  00000-0 -85806-5 0  9996,2 55639  69.9998 158.9019 0002975 271.9502  88.1316 14.98331492 63372,6950.188,96.107,574.121,569.986,0.0
55639.0,STARLINK-5508,PAYLOAD,2024-04-05 04:27:37,14.98332316,0.0003128,69.9994,158.2288,273.0614,87.0187,0.00010259,1.131e-05,0.0,0 STARLINK-5508,1 55639U 23021M   24096.18584738  .00001131  00000-0  10259-3 0  9997,2 55639  69.9994 158.2288 0003128 273.0614  87.0187 14.98332316 63119,6950.186,96.107,574.225,569.877,0.0
55639.0,STARLINK-5508,PAYLOAD,2024-04-05 14:04:25,14.98337554,0.0003111,69.9994,157.2189,272.9768,87.1035,0.00011067,1.228e-05,0.0,0 STARLINK-5508,1 55639U 23021M   24096.58640276  .00001228  00000-0  11067-3 0  9996,2 55639  69.9994 157.2189 0003111 272.9768  87.1035 14.98337554 63479,6950.17,96.107,574.197,569.872,0.0
55639.0,STARLINK-5508,PAYLOAD,2024-04-06 04:29:38,14.98322993,0.000307,69.9995,155.7041,272.6683,87.4124,-2.8068e-05,-4.28e-06,0.0,0 STARLINK-5508,1 55639U 23021M   24097.18725575 -.00000428  00000-0 -28068-4 0  9992,2 55639  69.9995 155.7041 0003070 272.6683  87.4124 14.98322993 63267,6950.215,96.107,574.213,569.946,0.0
55639.0,STARLINK-5508,PAYLOAD,2024-04-06 10:54:11,14.9832402,0.000307,69.9995,155.0309,272.5905,87.4902,-1.655e-05,-2.9e-06,0.0,0 STARLINK-5508,1 55639U 23021M   24097.45429561 -.00000290  00000-0 -16550-4 0  9998,2 55639  69.9995 155.0309 0003070 272.5905  87.4902 14.98324020 63608,6950.211,96.107,574.21,569.943,0.0
55639.0,STARLINK-5508,PAYLOAD,2024-04-06 20:30:59,14.98325862,0.0003067,69.9995,154.0209,272.6501,87.4307,-1.6154e-05,-2.86e-06,0.0,0 STARLINK-5508,1 55639U 23021M   24097.85485532 -.00000286  00000-0 -16154-4 0  9997,2 55639  69.9995 154.0209 0003067 272.6501  87.4307 14.98325862 63665,6950.206,96.107,574.202,569.939,0.0
